NORAD_CAT_ID,OBJECT_NAME,OBJECT_TYPE,EPOCH,MEAN_MOTION,ECCENTRICITY,INCLINATION,RA_OF_ASC_NODE,ARG_OF_PERICENTER,MEAN_ANOMALY,BSTAR,MEAN_MOTION_DOT,MEAN_MOTION_DDOT,TLE_LINE0,TLE_LINE1,TLE_LINE2,SEMIMAJOR_AXIS,PERIOD,APOGEE,PERIGEE,DECAYED
54054.0,STARLINK-5163,PAYLOAD,2024-01-16 19:23:41,15.08843384,0.0001457,53.2154,258.742,82.826,277.2898,7.3327e-05,8.79e-06,0.0,0 STARLINK-5163,1 54054U 22136D   24016.80811587  .00000879  00000-0  73327-4 0  9993,2 54054  53.2154 258.7420 0001457  82.8260 277.2898 15.08843384 69137,6917.87,95.437,540.743,538.727,0.0
54054.0,STARLINK-5163,PAYLOAD,2024-01-16 22:34:27,15.08846432,0.0001527,53.2158,258.147,82.4755,277.6411,8.5303e-05,1.07e-05,0.0,0 STARLINK-5163,1 54054U 22136D   24016.94059430  .00001070  00000-0  85303-4 0  9990,2 54054  53.2158 258.1470 0001527  82.4755 277.6411 15.08846432 68673,6917.861,95.437,540.782,538.669,0.0
54054.0,STARLINK-5163,PAYLOAD,2024-01-17 01:45:13,15.08849561,0.0001475,53.2156,257.5512,90.0862,270.0299,0.00012057,1.632e-05,0.0,0 STARLINK-5163,1 54054U 22136D   24017.07307192  .00001632  00000-0  12057-3 0  9995,2 54054  53.2156 257.5512 0001475  90.0862 270.0299 15.08849561 68696,6917.851,95.437,540.737,538.696,0.0
54054.0,STARLINK-5163,PAYLOAD,2024-01-17 22:25:14,15.08839696,0.0001476,53.2168,253.6821,100.0281,260.0878,1.3495e-05,-7.3e-07,0.0,0 STARLINK-5163,1 54054U 22136D   24017.93419755 -.00000073  00000-0  13495-4 0  9996,2 54054  53.2168 253.6821 0001476 100.0281 260.0878 15.08839696 68822,6917.881,95.438,540.767,538.725,0.0
54054.0,STARLINK-5163,PAYLOAD,2024-01-18 22:16:02,15.08822902,0.0001696,53.2166,249.2207,104.8111,255.3069,0.00039599,6.017e-05,0.0,0 STARLINK-5163,1 54054U 22136D   24018.92780257  .00006017  00000-0  39599-3 0  9999,2 54054  53.2166 249.2207 0001696 104.8111 255.3069 15.08822902 68974,6917.933,95.439,540.971,538.624,0.0
54054.0,STARLINK-5163,PAYLOAD,2024-01-19 14:09:53,15.0882685,0.0001507,53.2171,246.2554,109.9588,250.1567,0.00028924,4.317e-05,0.0,0 STARLINK-5163,1 54054U 22136D   24019.59020574  .00004317  00000-0  28924-3 0  9993,2 54054  53.2171 246.2554 0001507 109.9588 250.1567 15.08826850 69071,6917.921,95.438,540.828,538.743,0.0
54054.0,STARLINK-5163,PAYLOAD,2024-01-19 20:31:26,15.08835753,0.0001565,53.217,245.0637,110.1711,249.945,7.1163e-05,8.45e-06,0.0,0 STARLINK-5163,1 54054U 22136D   24019.85516324  .00000845  00000-0  71163-4 0  9991,2 54054  53.2170 245.0637 0001565 110.1711 249.9450 15.08835753 69119,6917.893,95.438,540.841,538.676,0.0
54054.0,STARLINK-5163,PAYLOAD,2024-01-20 01:17:35,15.08837723,0.0001509,53.2169,244.1711,104.8755,255.2404,7.8819e-05,9.67e-06,0.0,0 STARLINK-5163,1 54054U 22136D   24020.05388220  .00000967  00000-0  78819-4 0  9997,2 54054  53.2169 244.1711 0001509 104.8755 255.2404 15.08837723 69620,6917.887,95.438,540.796,538.708,0.0
54054.0,STARLINK-5163,PAYLOAD,2024-01-20 18:46:50,15.08833019,0.0001485,53.2168,240.8997,104.4664,255.6493,3.2791e-06,-2.36e-06,0.0,0 STARLINK-5163,1 54054U 22136D   24020.78253032 -.00000236  00000-0  32791-5 0  9999,2 54054  53.2168 240.8997 0001485 104.4664 255.6493 15.08833019 69734,6917.902,95.438,540.794,538.739,0.0
54054.0,STARLINK-5163,PAYLOAD,2024-01-20 21:57:36,15.08836336,0.0001679,53.2167,240.3044,101.7122,258.4059,2.0621e-05,4e-07,0.0,0 STARLINK-5163,1 54054U 22136D   24020.91500852  .00000040  00000-0  20621-4 0  9999,2 54054  53.2167 240.3044 0001679 101.7122 258.4059 15.08836336 69278,6917.892,95.438,540.918,538.595,0.0
54054.0,STARLINK-5163,PAYLOAD,2024-01-20 23:32:59,15.08841498,0.0001573,53.2168,240.0069,95.9048,264.2124,-2.5362e-05,-6.92e-06,0.0,0 STARLINK-5163,1 54054U 22136D   24020.98124636 -.00000692  00000-0 -25362-4 0  9990,2 54054  53.2168 240.0069 0001573  95.9048 264.2124 15.08841498 69764,6917.876,95.437,540.829,538.653,0.0
54054.0,STARLINK-5163,PAYLOAD,2024-01-21 21:48:23,15.08844708,0.0001436,53.2164,235.8435,88.4281,271.6875,0.00012016,1.625e-05,0.0,0 STARLINK-5163,1 54054U 22136D   24021.90860168  .00001625  00000-0  12016-3 0  9996,2 54054  53.2164 235.8435 0001436  88.4281 271.6875 15.08844708 69428,6917.866,95.437,540.724,538.738,0.0
54054.0,STARLINK-5163,PAYLOAD,2024-01-21 23:23:46,15.08846131,0.0001441,53.2164,235.5461,89.0757,271.04,0.00013088,1.796e-05,0.0,0 STARLINK-5163,1 54054U 22136D   24021.97484046  .00001796  00000-0  13088-3 0  9999,2 54054  53.2164 235.5461 0001441  89.0757 271.0400 15.08846131 69919,6917.862,95.437,540.724,538.73,0.0
54054.0,STARLINK-5163,PAYLOAD,2024-01-22 20:03:47,15.08841866,0.0001499,53.2165,231.6778,84.7592,275.3572,9.1719e-05,1.172e-05,0.0,0 STARLINK-5163,1 54054U 22136D   24022.83596521  .00001172  00000-0  91719-4 0  9993,2 54054  53.2165 231.6778 0001499  84.7592 275.3572 15.08841866 70043,6917.875,95.437,540.777,538.703,0.0
54054.0,STARLINK-5163,PAYLOAD,2024-01-23 05:36:06,15.08838487,0.0001337,53.2151,229.896,96.7863,263.3281,4.9232e-05,4.96e-06,0.0,0 STARLINK-5163,1 54054U 22136D   24023.23340704  .00000496  00000-0  49232-4 0  9999,2 54054  53.2151 229.8960 0001337  96.7863 263.3281 15.08838487 69626,6917.885,95.438,540.675,538.825,0.0
54054.0,STARLINK-5163,PAYLOAD,2024-01-23 21:29:57,15.08845997,0.000139,53.2156,226.9224,92.207,267.9081,3.8281e-05,3.21e-06,0.0,0 STARLINK-5163,1 54054U 22136D   24023.89580140  .00000321  00000-0  38281-4 0  9990,2 54054  53.2156 226.9224 0001390  92.2070 267.9081 15.08845997 69725,6917.862,95.437,540.689,538.765,0.0
54054.0,STARLINK-5163,PAYLOAD,2024-01-24 02:16:06,15.08849058,0.0001364,53.2156,226.0302,90.6677,269.4471,5.0095e-05,5.1e-06,0.0,0 STARLINK-5163,1 54054U 22136D   24024.09451820  .00000510  00000-0  50095-4 0  9992,2 54054  53.2156 226.0302 0001364  90.6677 269.4471 15.08849058 70239,6917.853,95.437,540.661,538.774,0.0
54054.0,STARLINK-5163,PAYLOAD,2024-01-24 03:51:30,15.08841366,0.0001427,53.2157,225.7316,98.4781,261.6373,7.2822e-06,-1.72e-06,0.0,0 STARLINK-5163,1 54054U 22136D   24024.16076487 -.00000172  00000-0  72822-5 0  9990,2 54054  53.2157 225.7316 0001427  98.4781 261.6373 15.08841366 70243,6917.876,95.437,540.728,538.754,0.0
54054.0,STARLINK-5163,PAYLOAD,2024-01-24 13:23:48,15.08844206,0.000132,53.2151,223.949,92.4735,267.6408,4.5699e-05,4.4e-06,0.0,0 STARLINK-5163,1 54054U 22136D   24024.55820293  .00000440  00000-0  45699-4 0  9993,2 54054  53.2151 223.9490 0001320  92.4735 267.6408 15.08844206 69828,6917.868,95.437,540.646,538.819,0.0
54054.0,STARLINK-5163,PAYLOAD,2024-01-24 21:20:44,15.08846119,0.0001374,53.2156,222.4618,112.6668,247.447,7.0631e-05,8.37e-06,0.0,0 STARLINK-5163,1 54054U 22136D   24024.88939985  .00000837  00000-0  70631-4 0  9992,2 54054  53.2156 222.4618 0001374 112.6668 247.4470 15.08846119 69873,6917.862,95.437,540.677,538.776,0.0
54054.0,STARLINK-5163,PAYLOAD,2024-01-24 22:56:07,15.08846761,0.0001313,53.2156,222.1648,93.3148,266.7995,7.7399e-05,9.44e-06,0.0,0 STARLINK-5163,1 54054U 22136D   24024.95564000  .00000944  00000-0  77399-4 0  9999,2 54054  53.2156 222.1648 0001313  93.3148 266.7995 15.08846761 69884,6917.86,95.437,540.633,538.816,0.0
54054.0,STARLINK-5163,PAYLOAD,2024-01-25 19:36:08,15.0883707,0.000136,53.2155,218.2983,92.5625,267.5523,4.9732e-05,5.04e-06,0.0,0 STARLINK-5163,1 54054U 22136D   24025.81676838  .00000504  00000-0  49732-4 0  9990,2 54054  53.2155 218.2983 0001360  92.5625 267.5523 15.08837070 70492,6917.889,95.438,540.695,538.814,0.0
54054.0,STARLINK-5163,PAYLOAD,2024-01-26 17:51:32,15.08843772,0.000132,53.2154,214.1348,91.6281,268.4862,0.0001043,1.373e-05,0.0,0 STARLINK-5163,1 54054U 22136D   24026.74412344  .00001373  00000-0  10430-3 0  9990,2 54054  53.2154 214.1348 0001320  91.6281 268.4862 15.08843772 70633,6917.869,95.437,540.647,538.821,0.0
54054.0,STARLINK-5163,PAYLOAD,2024-01-27 12:56:10,15.08839702,0.0001286,53.2156,210.5657,87.8087,272.3053,0.00010742,1.422e-05,0.0,0 STARLINK-5163,1 54054U 22136D   24027.53900763  .00001422  00000-0  10742-3 0  9996,2 54054  53.2156 210.5657 0001286  87.8087 272.3053 15.08839702 70757,6917.881,95.438,540.636,538.857,0.0
54054.0,STARLINK-5163,PAYLOAD,2024-01-27 19:17:42,15.08840507,0.0001281,53.2157,209.3759,89.8976,270.2163,0.00010245,1.343e-05,0.0,0 STARLINK-5163,1 54054U 22136D   24027.80396710  .00001343  00000-0  10245-3 0  9997,2 54054  53.2157 209.3759 0001281  89.8976 270.2163 15.08840507 70317,6917.879,95.438,540.63,538.858,0.0
54054.0,STARLINK-5163,PAYLOAD,2024-01-28 11:11:34,15.08837558,0.0001393,53.2164,206.4045,95.5479,264.5672,5.2478e-05,5.47e-06,0.0,0 STARLINK-5163,1 54054U 22136D   24028.46637056  .00000547  00000-0  52478-4 0  9991,2 54054  53.2164 206.4045 0001393  95.5479 264.5672 15.08837558 70411,6917.888,95.438,540.717,538.789,0.0
54054.0,STARLINK-5163,PAYLOAD,2024-01-28 19:08:30,15.08837105,0.0001338,53.2163,204.9175,90.0401,270.0744,3.7087e-05,3.02e-06,0.0,0 STARLINK-5163,1 54054U 22136D   24028.79757191  .00000302  00000-0  37087-4 0  9998,2 54054  53.2163 204.9175 0001338  90.0401 270.0744 15.08837105 70949,6917.889,95.438,540.68,538.829,0.0
54054.0,STARLINK-5163,PAYLOAD,2024-01-29 20:34:39,15.08844715,0.0001312,53.2163,200.1592,92.8156,267.2987,0.00010984,1.461e-05,0.0,0 STARLINK-5163,1 54054U 22136D   24029.85740484  .00001461  00000-0  10984-3 0  9996,2 54054  53.2163 200.1592 0001312  92.8156 267.2987 15.08844715 70626,6917.866,95.437,540.639,538.823,0.0
54054.0,STARLINK-5163,PAYLOAD,2024-01-30 10:53:08,15.08838459,0.0001181,53.2162,197.4821,100.5569,259.5556,4.4877e-05,4.26e-06,0.0,0 STARLINK-5163,1 54054U 22136D   24030.45357071  .00000426  00000-0  44877-4 0  9999,2 54054  53.2162 197.4821 0001181 100.5569 259.5556 15.08838459 71194,6917.885,95.438,540.567,538.933,0.0
54054.0,STARLINK-5163,PAYLOAD,2024-01-30 17:14:40,15.08840868,0.0001324,53.2166,196.2941,86.894,273.2203,7.1675e-05,8.53e-06,0.0,0 STARLINK-5163,1 54054U 22136D   24030.71852933  .00000853  00000-0  71675-4 0  9995,2 54054  53.2166 196.2941 0001324  86.8940 273.2203 15.08840868 70756,6917.878,95.437,540.659,538.827,0.0
